CELESTIS-17 & SHERPA-FX1
1 47486U 21006CB  26068.64311433  .00007207  00000+0  24301-3 0  9993
2 47486  97.2397 112.1052 0006630 178.1385 181.9882 15.30994801284065
STARLINK-34996          
1 65223U 25176AB  26068.51711919  .00039355  00000+0  13348-2 0  9990
2 65223  53.1572 153.5555 0001254  95.2899 264.8244 15.30177434 33096
